[{"OBJECT_NAME":"STARLINK-30280","OBJECT_ID":"2023-122M","EPOCH":"2026-03-09T22:00:01.999584","MEAN_MOTION":15.27564889,"ECCENTRICITY":0.00014545,"INCLINATION":43.0011,"RA_OF_ASC_NODE":91.038,"ARG_OF_PERICENTER":260.8212,"MEAN_ANOMALY":103.1201,"EPHEMERIS_TYPE":0,"CLASSIFICATION_TYPE":"U","NORAD_CAT_ID":57643,"ELEMENT_SET_NO":999,"REV_AT_EPOCH":578,"BSTAR":0.0014082321,"MEAN_MOTION_DOT":0.00038675,"MEAN_MOTION_DDOT":0},{"OBJECT_NAME":"REAL","OBJECT_ID":"2025-154G","EPOCH":"2026-03-09T17:20:09.670560","MEAN_MOTION":15.28408058,"ECCENTRICITY":0.00018528,"INCLINATION":97.4133,"RA_OF_ASC_NODE":137.2581,"ARG_OF_PERICENTER":118.5876,"MEAN_ANOMALY":241.555,"EPHEMERIS_TYPE":0,"CLASSIFICATION_TYPE":"U","NORAD_CAT_ID":64875,"ELEMENT_SET_NO":999,"REV_AT_EPOCH":3483,"BSTAR":0.0008290401,"MEAN_MOTION_DOT":0.00022901,"MEAN_MOTION_DDOT":0}]
